start=new Date('2023-03-17T00:00:00.000Z').valueOf();
sats=[{"ARG_OF_PERICENTER":"82.6918","ECCENTRICITY":"0.00015260","REF_FRAME":"TEME","EPHEMERIS_TYPE":"0","MEAN_MOTION":"15.08867242","GP_ID":"228214295","RCS_SIZE":"LARGE","NORAD_CAT_ID":"53180","EPOCH":"2023-03-16T04:16:38.190720","PERIOD":"95.436","FILE":"3861730","CENTER_NAME":"EARTH","MEAN_MOTION_DDOT":"0.0000000000000","MEAN_ELEMENT_THEORY":"SGP4","DECAY_DATE":null,"MEAN_ANOMALY":"277.4247","ELEMENT_SET_NO":"999","LAUNCH_DATE":"2022-07-17","RA_OF_ASC_NODE":"334.9327","OBJECT_TYPE":"PAYLOAD","COUNTRY_CODE":"US","MEAN_MOTION_DOT":"0.00030321","SITE":"AFETR","INCLINATION":"53.2182","OBJECT_NAME":"STARLINK-4258","APOAPSIS":"540.718","TLE_LINE1":"1 53180U 22083BA  23075.17821980  .00030321  00000-0  19136-2 0  9996","CLASSIFICATION_TYPE":"U","TIME_SYSTEM":"UTC","TLE_LINE2":"2 53180  53.2182 334.9327 0001526  82.6918 277.4247 15.08867242 38073","OBJECT_ID":"2022-083BA","REV_AT_EPOCH":"3807","BSTAR":"0.00191360000000","SEMIMAJOR_AXIS":"6917.797","PERIAPSIS":"538.606"},{"BSTAR":"0.00176390000000","REV_AT_EPOCH":"3742","PERIAPSIS":"538.631","SEMIMAJOR_AXIS":"6917.753","TLE_LINE1":"1 53181U 22083BB  23075.11101659  .00027928  00000-0  17639-2 0  9990","APOAPSIS":"540.606","OBJECT_NAME":"STARLINK-4273","OBJECT_ID":"2022-083BB","TLE_LINE2":"2 53181  53.2170 335.2232 0001427  99.7662 260.3491 15.08881545 37427","TIME_SYSTEM":"UTC","CLASSIFICATION_TYPE":"U","OBJECT_TYPE":"PAYLOAD","RA_OF_ASC_NODE":"335.2232","LAUNCH_DATE":"2022-07-17","MEAN_ELEMENT_THEORY":"SGP4","DECAY_DATE":null,"ELEMENT_SET_NO":"999","MEAN_ANOMALY":"260.3491","MEAN_MOTION_DDOT":"0.0000000000000","CENTER_NAME":"EARTH","INCLINATION":"53.2170","SITE":"AFETR","COUNTRY_CODE":"US","MEAN_MOTION_DOT":"0.00027928","MEAN_MOTION":"15.08881545","EPHEMERIS_TYPE":"0","ARG_OF_PERICENTER":"99.7662","REF_FRAME":"TEME","ECCENTRICITY":"0.00014270","FILE":"3862295","EPOCH":"2023-03-16T02:39:51.833376","PERIOD":"95.435","RCS_SIZE":"LARGE","NORAD_CAT_ID":"53181","GP_ID":"228251309"},{"OBJECT_TYPE":"PAYLOAD","LAUNCH_DATE":"2022-07-17","RA_OF_ASC_NODE":"350.3035","DECAY_DATE":null,"MEAN_ELEMENT_THEORY":"SGP4","MEAN_ANOMALY":"240.3262","ELEMENT_SET_NO":"999","CENTER_NAME":"EARTH","MEAN_MOTION_DDOT":"0.0000000000000","INCLINATION":"53.2183","SITE":"AFETR","COUNTRY_CODE":"US","MEAN_MOTION_DOT":"0.00002110","MEAN_MOTION":"15.08842921","ECCENTRICITY":"0.00009650","REF_FRAME":"TEME","ARG_OF_PERICENTER":"119.7826","EPHEMERIS_TYPE":"0","FILE":"3861731","EPOCH":"2023-03-16T03:17:39.356448","PERIOD":"95.437","GP_ID":"228214312","RCS_SIZE":"LARGE","NORAD_CAT_ID":"53182","BSTAR":"0.00015059000000","REV_AT_EPOCH":"3785","PERIAPSIS":"539.069","SEMIMAJOR_AXIS":"6917.871","TLE_LINE1":"1 53182U 22083BC  23075.13726107  .00002110  00000-0  15059-3 0  9995","OBJECT_NAME":"STARLINK-4278","APOAPSIS":"540.404","OBJECT_ID":"2022-083BC","TLE_LINE2":"2 53182  53.2183 350.3035 0000965 119.7826 240.3262 15.08842921 37858","CLASSIFICATION_TYPE":"U","TIME_SYSTEM":"UTC"},{"TLE_LINE1":"1 53183U 22083BD  23075.88251674  .00012325  00000-0  79143-3 0  9993","OBJECT_NAME":"STARLINK-4268","APOAPSIS":"540.353","OBJECT_ID":"2022-083BD","TLE_LINE2":"2 53183  53.2186 336.9644 0000808 102.7777 257.3305 15.08824218 37463","CLASSIFICATION_TYPE":"U","TIME_SYSTEM":"UTC","BSTAR":"0.00079143000000","REV_AT_EPOCH":"3746","PERIAPSIS":"539.235","SEMIMAJOR_AXIS":"6917.929","MEAN_MOTION":"15.08824218","ECCENTRICITY":"0.00008080","REF_FRAME":"TEME","ARG_OF_PERICENTER":"102.7777","EPHEMERIS_TYPE":"0","FILE":"3862592","EPOCH":"2023-03-16T21:10:49.446336","PERIOD":"95.439","GP_ID":"228284022","NORAD_CAT_ID":"53183","RCS_SIZE":"LARGE","OBJECT_TYPE":"PAYLOAD","RA_OF_ASC_NODE":"336.9644","LAUNCH_DATE":"2022-07-17","DECAY_DATE":null,"MEAN_ANOMALY":"257.3305","MEAN_ELEMENT_THEORY":"SGP4","ELEMENT_SET_NO":"999","CENTER_NAME":"EARTH","MEAN_MOTION_DDOT":"0.0000000000000","INCLINATION":"53.2186","SITE":"AFETR","MEAN_MOTION_DOT":"0.00012325","COUNTRY_CODE":"US"},{"GP_ID":"228284772","NORAD_CAT_ID":"53184","RCS_SIZE":"LARGE","PERIOD":"95.438","EPOCH":"2023-03-16T21:12:40.945536","FILE":"3862592","REF_FRAME":"TEME","ECCENTRICITY":"0.00011150","ARG_OF_PERICENTER":"75.6207","EPHEMERIS_TYPE":"0","MEAN_MOTION":"15.08836415","COUNTRY_CODE":"US","MEAN_MOTION_DOT":"0.00043623","SITE":"AFETR","INCLINATION":"53.2171","CENTER_NAME":"EARTH","MEAN_MOTION_DDOT":"0.0000000000000","MEAN_ELEMENT_THEORY":"SGP4","DECAY_DATE":null,"MEAN_ANOMALY":"284.4909","ELEMENT_SET_NO":"999","RA_OF_ASC_NODE":"331.5443","LAUNCH_DATE":"2022-07-17","OBJECT_TYPE":"PAYLOAD","CLASSIFICATION_TYPE":"U","TIME_SYSTEM":"UTC","TLE_LINE2":"2 53184  53.2171 331.5443 0001115  75.6207 284.4909 15.08836415 37557","OBJECT_ID":"2022-083BE","OBJECT_NAME":"STARLINK-4257","APOAPSIS":"540.528","TLE_LINE1":"1 53184U 22083BE  23075.88380724  .00043623  00000-0  27424-2 0  9992","SEMIMAJOR_AXIS":"6917.891","PERIAPSIS":"538.985","REV_AT_EPOCH":"3755","BSTAR":"0.00274240000000"},{"PERIAPSIS":"562.634","SEMIMAJOR_AXIS":"6941.149","BSTAR":"0.00108940000000","REV_AT_EPOCH":"3663","OBJECT_ID":"2022-084A","TLE_LINE2":"2 53189  97.6556 138.2663 0000548 101.5760 258.5525 15.01259323 36633","CLASSIFICATION_TYPE":"U","TIME_SYSTEM":"UTC","TLE_LINE1":"1 53189U 22084A   23075.88126802  .00013961  00000-0  10894-2 0  9998","APOAPSIS":"563.394","OBJECT_NAME":"STARLINK-4391","INCLINATION":"97.6556","SITE":"AFWTR","MEAN_MOTION_DOT":"0.00013961","COUNTRY_CODE":"US","OBJECT_TYPE":"PAYLOAD","RA_OF_ASC_NODE":"138.2663","LAUNCH_DATE":"2022-07-22","DECAY_DATE":null,"MEAN_ELEMENT_THEORY":"SGP4","ELEMENT_SET_NO":"999","MEAN_ANOMALY":"258.5525","MEAN_MOTION_DDOT":"0.0000000000000","CENTER_NAME":"EARTH","FILE":"3862592","PERIOD":"95.919","EPOCH":"2023-03-16T21:09:01.556928","RCS_SIZE":"LARGE","NORAD_CAT_ID":"53189","GP_ID":"228283022","MEAN_MOTION":"15.01259323","EPHEMERIS_TYPE":"0","ECCENTRICITY":"0.00005480","REF_FRAME":"TEME","ARG_OF_PERICENTER":"101.5760"},{"RA_OF_ASC_NODE":"138.3119","LAUNCH_DATE":"2022-07-22","OBJECT_TYPE":"PAYLOAD","CENTER_NAME":"EARTH","MEAN_MOTION_DDOT":"0.0000000000000","MEAN_ELEMENT_THEORY":"SGP4","DECAY_DATE":null,"MEAN_ANOMALY":"264.3739","ELEMENT_SET_NO":"999","SITE":"AFWTR","INCLINATION":"97.6571","COUNTRY_CODE":"US","MEAN_MOTION_DOT":"0.00009817","ARG_OF_PERICENTER":"95.7749","REF_FRAME":"TEME","ECCENTRICITY":"0.00023120","EPHEMERIS_TYPE":"0","MEAN_MOTION":"15.01246769","FILE":"3862592","GP_ID":"228283272","RCS_SIZE":"LARGE","NORAD_CAT_ID":"53190","PERIOD":"95.920","EPOCH":"2023-03-16T21:52:02.338752","BSTAR":"0.00076808000000","REV_AT_EPOCH":"3663","SEMIMAJOR_AXIS":"6941.188","PERIAPSIS":"561.448","TLE_LINE1":"1 53190U 22084B   23075.91113818  .00009817  00000-0  76808-3 0  9990","OBJECT_NAME":"STARLINK-4332","APOAPSIS":"564.657","TLE_LINE2":"2 53190  97.6571 138.3119 0002312  95.7749 264.3739 15.01246769 36633","OBJECT_ID":"2022-084B","TIME_SYSTEM":"UTC","CLASSIFICATION_TYPE":"U"},{"MEAN_MOTION_DOT":"0.00010067","COUNTRY_CODE":"US","SITE":"AFWTR","INCLINATION":"97.6469","MEAN_MOTION_DDOT":"0.0000000000000","CENTER_NAME":"EARTH","MEAN_ANOMALY":"186.1443","DECAY_DATE":null,"MEAN_ELEMENT_THEORY":"SGP4","ELEMENT_SET_NO":"999","RA_OF_ASC_NODE":"137.5220","LAUNCH_DATE":"2022-07-22","OBJECT_TYPE":"PAYLOAD","NORAD_CAT_ID":"53191","RCS_SIZE":"LARGE","GP_ID":"228250316","PERIOD":"95.918","EPOCH":"2023-03-16T03:25:14.146176","FILE":"3862295","EPHEMERIS_TYPE":"0","ARG_OF_PERICENTER":"173.9804","ECCENTRICITY":"0.00019070","REF_FRAME":"TEME","MEAN_MOTION":"15.01276421","SEMIMAJOR_AXIS":"6941.096","PERIAPSIS":"561.638","REV_AT_EPOCH":"3584","BSTAR":"0.00078690000000","TIME_SYSTEM":"UTC","CLASSIFICATION_TYPE":"U","TLE_LINE2":"2 53191  97.6469 137.5220 0001907 173.9804 186.1443 15.01276421 35847","OBJECT_ID":"2022-084C","APOAPSIS":"564.285","OBJECT_NAME":"STARLINK-4369","TLE_LINE1":"1 53191U 22084C   23075.14252484  .00010067  00000-0  78690-3 0  9999"},{"TLE_LINE1":"1 53192U 22084D   23075.20732960  .00025597  00000-0  19892-2 0  9991","APOAPSIS":"563.920","OBJECT_NAME":"STARLINK-4375","OBJECT_ID":"2022-084D","TLE_LINE2":"2 53192  97.6558 137.5979 0001397 271.2933  88.8131 15.01279905 36524","TIME_SYSTEM":"UTC","CLASSIFICATION_TYPE":"U","BSTAR":"0.00198920000000","REV_AT_EPOCH":"3652","PERIAPSIS":"561.981","SEMIMAJOR_AXIS":"6941.085","MEAN_MOTION":"15.01279905","EPHEMERIS_TYPE":"0","ARG_OF_PERICENTER":"271.2933","REF_FRAME":"TEME","ECCENTRICITY":"0.00013970","FILE":"3862295","EPOCH":"2023-03-16T04:58:33.277440","PERIOD":"95.918","RCS_SIZE":"LARGE","NORAD_CAT_ID":"53192","GP_ID":"228251068","OBJECT_TYPE":"PAYLOAD","RA_OF_ASC_NODE":"137.5979","LAUNCH_DATE":"2022-07-22","MEAN_ELEMENT_THEORY":"SGP4","DECAY_DATE":null,"MEAN_ANOMALY":"88.8131","ELEMENT_SET_NO":"999","MEAN_MOTION_DDOT":"0.0000000000000","CENTER_NAME":"EARTH","INCLINATION":"97.6558","SITE":"AFWTR","MEAN_MOTION_DOT":"0.00025597","COUNTRY_CODE":"US"},{"MEAN_MOTION":"15.01256576","ECCENTRICITY":"0.00002020","ARG_OF_PERICENTER":"177.3013","REF_FRAME":"TEME","EPHEMERIS_TYPE":"0","FILE":"3862592","PERIOD":"95.920","EPOCH":"2023-03-16T21:06:21.420576","GP_ID":"228283522","RCS_SIZE":"LARGE","NORAD_CAT_ID":"53193","OBJECT_TYPE":"PAYLOAD","LAUNCH_DATE":"2022-07-22","RA_OF_ASC_NODE":"138.2614","DECAY_DATE":null,"MEAN_ELEMENT_THEORY":"SGP4","MEAN_ANOMALY":"182.8212","ELEMENT_SET_NO":"999","CENTER_NAME":"EARTH","MEAN_MOTION_DDOT":"0.0000000000000","INCLINATION":"97.6567","SITE":"AFWTR","MEAN_MOTION_DOT":"0.00006109","COUNTRY_CODE":"US","TLE_LINE1":"1 53193U 22084E   23075.87941459  .00006109  00000-0  47985-3 0  9993","OBJECT_NAME":"STARLINK-4351","APOAPSIS":"563.163","OBJECT_ID":"2022-084E","TLE_LINE2":"2 53193  97.6567 138.2614 0000202 177.3013 182.8212 15.01256576 36971","TIME_SYSTEM":"UTC","CLASSIFICATION_TYPE":"U","BSTAR":"0.00047985000000","REV_AT_EPOCH":"3697","PERIAPSIS":"562.882","SEMIMAJOR_AXIS":"6941.157"}];
